[{"OBJECT_NAME":"NETSAT-1","OBJECT_ID":"2020-068W","EPOCH":"2026-03-09T22:42:38.711232","MEAN_MOTION":15.32042482,"ECCENTRICITY":0.00057337,"INCLINATION":97.8751,"RA_OF_ASC_NODE":63.2583,"ARG_OF_PERICENTER":18.5877,"MEAN_ANOMALY":341.5572,"EPHEMERIS_TYPE":0,"CLASSIFICATION_TYPE":"U","NORAD_CAT_ID":46506,"ELEMENT_SET_NO":999,"REV_AT_EPOCH":30009,"BSTAR":0.00059222329,"MEAN_MOTION_DOT":0.00018269,"MEAN_MOTION_DDOT":0},{"OBJECT_NAME":"STARLINK-32289","OBJECT_ID":"2024-152T","EPOCH":"2026-03-09T22:14:32.231616","MEAN_MOTION":15.30189101,"ECCENTRICITY":0.00011658,"INCLINATION":53.1594,"RA_OF_ASC_NODE":267.5765,"ARG_OF_PERICENTER":93.5355,"MEAN_ANOMALY":266.5779,"EPHEMERIS_TYPE":0,"CLASSIFICATION_TYPE":"U","NORAD_CAT_ID":60737,"ELEMENT_SET_NO":999,"REV_AT_EPOCH":8688,"BSTAR":1.330219e-5,"MEAN_MOTION_DOT":3.5e-7,"MEAN_MOTION_DDOT":0}]
